[{"OBJECT_NAME":"ONEWEB-0171","OBJECT_ID":"2021-025AE","EPOCH":"2025-12-25T09:49:43.906080","MEAN_MOTION":13.13468809,"ECCENTRICITY":0.0001733,"INCLINATION":87.8974,"RA_OF_ASC_NODE":354.7764,"ARG_OF_PERICENTER":84.2026,"MEAN_ANOMALY":275.93,"EPHEMERIS_TYPE":0,"CLASSIFICATION_TYPE":"U","NORAD_CAT_ID":48070,"ELEMENT_SET_NO":999,"REV_AT_EPOCH":23080,"BSTAR":-0.00087191,"MEAN_MOTION_DOT":-3.06e-6,"MEAN_MOTION_DDOT":0},{"OBJECT_NAME":"ONEWEB-0172","OBJECT_ID":"2021-025AF","EPOCH":"2025-12-25T12:59:52.136160","MEAN_MOTION":13.13467746,"ECCENTRICITY":0.000163,"INCLINATION":87.8985,"RA_OF_ASC_NODE":354.7332,"ARG_OF_PERICENTER":83.1659,"MEAN_ANOMALY":276.9655,"EPHEMERIS_TYPE":0,"CLASSIFICATION_TYPE":"U","NORAD_CAT_ID":48071,"ELEMENT_SET_NO":999,"REV_AT_EPOCH":23171,"BSTAR":-7.0301e-5,"MEAN_MOTION_DOT":-1.3e-7,"MEAN_MOTION_DDOT":0},{"OBJECT_NAME":"ONEWEB-0174","OBJECT_ID":"2021-025AG","EPOCH":"2025-12-25T12:33:04.129344","MEAN_MOTION":13.13468683,"ECCENTRICITY":0.0001698,"INCLINATION":87.8977,"RA_OF_ASC_NODE":354.7403,"ARG_OF_PERICENTER":93.084,"MEAN_ANOMALY":267.0483,"EPHEMERIS_TYPE":0,"CLASSIFICATION_TYPE":"U","NORAD_CAT_ID":48072,"ELEMENT_SET_NO":999,"REV_AT_EPOCH":23103,"BSTAR":0.00098969,"MEAN_MOTION_DOT":3.74e-6,"MEAN_MOTION_DDOT":0},{"OBJECT_NAME":"ONEWEB-0175","OBJECT_ID":"2021-025AH","EPOCH":"2025-12-25T13:16:55.659936","MEAN_MOTION":13.13467848,"ECCENTRICITY":0.0001768,"INCLINATION":87.8983,"RA_OF_ASC_NODE":354.7044,"ARG_OF_PERICENTER":76.9458,"MEAN_ANOMALY":283.1869,"EPHEMERIS_TYPE":0,"CLASSIFICATION_TYPE":"U","NORAD_CAT_ID":48073,"ELEMENT_SET_NO":999,"REV_AT_EPOCH":23069,"BSTAR":-0.00070062,"MEAN_MOTION_DOT":-2.43e-6,"MEAN_MOTION_DDOT":0},{"OBJECT_NAME":"ONEWEB-0177","OBJECT_ID":"2021-025AJ","EPOCH":"2025-12-25T09:54:36.595584","MEAN_MOTION":13.134688,"ECCENTRICITY":0.0001589,"INCLINATION":87.8983,"RA_OF_ASC_NODE":354.7518,"ARG_OF_PERICENTER":92.9594,"MEAN_ANOMALY":267.1717,"EPHEMERIS_TYPE":0,"CLASSIFICATION_TYPE":"U","NORAD_CAT_ID":48074,"ELEMENT_SET_NO":999,"REV_AT_EPOCH":23086,"BSTAR":-0.00089159,"MEAN_MOTION_DOT":-3.13e-6,"MEAN_MOTION_DDOT":0},{"OBJECT_NAME":"ONEWEB-0178","OBJECT_ID":"2021-025AK","EPOCH":"2025-12-25T12:11:19.231872","MEAN_MOTION":13.13468628,"ECCENTRICITY":0.0001548,"INCLINATION":87.8974,"RA_OF_ASC_NODE":354.7729,"ARG_OF_PERICENTER":80.8071,"MEAN_ANOMALY":279.3233,"EPHEMERIS_TYPE":0,"CLASSIFICATION_TYPE":"U","NORAD_CAT_ID":48075,"ELEMENT_SET_NO":999,"REV_AT_EPOCH":23092,"BSTAR":0.00037329,"MEAN_MOTION_DOT":1.49e-6,"MEAN_MOTION_DDOT":0},{"OBJECT_NAME":"ONEWEB-0108","OBJECT_ID":"2021-025AL","EPOCH":"2025-12-25T00:14:27.100896","MEAN_MOTION":13.13469212,"ECCENTRICITY":0.00019467,"INCLINATION":87.8985,"RA_OF_ASC_NODE":354.8217,"ARG_OF_PERICENTER":92.5188,"MEAN_ANOMALY":267.6164,"EPHEMERIS_TYPE":0,"CLASSIFICATION_TYPE":"U","NORAD_CAT_ID":48076,"ELEMENT_SET_NO":999,"REV_AT_EPOCH":23078,"BSTAR":-0.00057854953,"MEAN_MOTION_DOT":-1.99e-6,"MEAN_MOTION_DDOT":0},{"OBJECT_NAME":"ONEWEB-0169","OBJECT_ID":"2021-025AM","EPOCH":"2025-12-25T10:09:13.101120","MEAN_MOTION":13.13474071,"ECCENTRICITY":0.0001925,"INCLINATION":87.8981,"RA_OF_ASC_NODE":354.7598,"ARG_OF_PERICENTER":92.6843,"MEAN_ANOMALY":267.4506,"EPHEMERIS_TYPE":0,"CLASSIFICATION_TYPE":"U","NORAD_CAT_ID":48077,"ELEMENT_SET_NO":999,"REV_AT_EPOCH":22949,"BSTAR":-0.0028502,"MEAN_MOTION_DOT":-1.028e-5,"MEAN_MOTION_DDOT":0},{"OBJECT_NAME":"ONEWEB-0176","OBJECT_ID":"2021-031A","EPOCH":"2025-12-25T20:36:39.737664","MEAN_MOTION":13.145012,"ECCENTRICITY":0.0001705,"INCLINATION":87.9004,"RA_OF_ASC_NODE":324.2344,"ARG_OF_PERICENTER":79.2379,"MEAN_ANOMALY":280.8942,"EPHEMERIS_TYPE":0,"CLASSIFICATION_TYPE":"U","NORAD_CAT_ID":48210,"ELEMENT_SET_NO":999,"REV_AT_EPOCH":22554,"BSTAR":-0.00057079,"MEAN_MOTION_DOT":-1.99e-6,"MEAN_MOTION_DDOT":0},{"OBJECT_NAME":"ONEWEB-0184","OBJECT_ID":"2021-031B","EPOCH":"2025-12-25T19:57:50.425632","MEAN_MOTION":13.14501137,"ECCENTRICITY":0.0001772,"INCLINATION":87.9016,"RA_OF_ASC_NODE":324.2219,"ARG_OF_PERICENTER":53.9303,"MEAN_ANOMALY":306.1991,"EPHEMERIS_TYPE":0,"CLASSIFICATION_TYPE":"U","NORAD_CAT_ID":48211,"ELEMENT_SET_NO":999,"REV_AT_EPOCH":22551,"BSTAR":0.00035173,"MEAN_MOTION_DOT":1.43e-6,"MEAN_MOTION_DDOT":0},{"OBJECT_NAME":"ONEWEB-0179","OBJECT_ID":"2021-031C","EPOCH":"2025-12-25T10:07:33.425760","MEAN_MOTION":13.14505059,"ECCENTRICITY":0.0001433,"INCLINATION":87.9009,"RA_OF_ASC_NODE":324.3109,"ARG_OF_PERICENTER":104.1104,"MEAN_ANOMALY":256.0185,"EPHEMERIS_TYPE":0,"CLASSIFICATION_TYPE":"U","NORAD_CAT_ID":48212,"ELEMENT_SET_NO":999,"REV_AT_EPOCH":22550,"BSTAR":-0.00039657,"MEAN_MOTION_DOT":-1.34e-6,"MEAN_MOTION_DDOT":0},{"OBJECT_NAME":"ONEWEB-0180","OBJECT_ID":"2021-031D","EPOCH":"2025-12-25T20:02:24.514944","MEAN_MOTION":13.1450151,"ECCENTRICITY":0.0001474,"INCLINATION":87.9016,"RA_OF_ASC_NODE":324.2267,"ARG_OF_PERICENTER":78.732,"MEAN_ANOMALY":281.3976,"EPHEMERIS_TYPE":0,"CLASSIFICATION_TYPE":"U","NORAD_CAT_ID":48213,"ELEMENT_SET_NO":999,"REV_AT_EPOCH":22544,"BSTAR":0.0004218,"MEAN_MOTION_DOT":1.69e-6,"MEAN_MOTION_DDOT":0},{"OBJECT_NAME":"ONEWEB-0218","OBJECT_ID":"2021-031E","EPOCH":"2025-12-25T15:05:32.856864","MEAN_MOTION":13.14503426,"ECCENTRICITY":0.0001463,"INCLINATION":87.9012,"RA_OF_ASC_NODE":324.2685,"ARG_OF_PERICENTER":50.2478,"MEAN_ANOMALY":309.878,"EPHEMERIS_TYPE":0,"CLASSIFICATION_TYPE":"U","NORAD_CAT_ID":48214,"ELEMENT_SET_NO":999,"REV_AT_EPOCH":22557,"BSTAR":-0.00036966,"MEAN_MOTION_DOT":-1.24e-6,"MEAN_MOTION_DDOT":0},{"OBJECT_NAME":"ONEWEB-0209","OBJECT_ID":"2021-031F","EPOCH":"2025-12-25T20:18:23.667264","MEAN_MOTION":13.14501766,"ECCENTRICITY":0.0001616,"INCLINATION":87.9006,"RA_OF_ASC_NODE":324.2602,"ARG_OF_PERICENTER":86.3967,"MEAN_ANOMALY":273.7348,"EPHEMERIS_TYPE":0,"CLASSIFICATION_TYPE":"U","NORAD_CAT_ID":48215,"ELEMENT_SET_NO":999,"REV_AT_EPOCH":22560,"BSTAR":-0.00022803,"MEAN_MOTION_DOT":-7.2e-7,"MEAN_MOTION_DDOT":0},{"OBJECT_NAME":"ONEWEB-0198","OBJECT_ID":"2021-031G","EPOCH":"2025-12-25T19:55:44.945184","MEAN_MOTION":13.14500688,"ECCENTRICITY":0.0001381,"INCLINATION":87.9002,"RA_OF_ASC_NODE":324.2604,"ARG_OF_PERICENTER":75.1152,"MEAN_ANOMALY":285.0131,"EPHEMERIS_TYPE":0,"CLASSIFICATION_TYPE":"U","NORAD_CAT_ID":48216,"ELEMENT_SET_NO":999,"REV_AT_EPOCH":22571,"BSTAR":0.00048249,"MEAN_MOTION_DOT":1.92e-6,"MEAN_MOTION_DDOT":0},{"OBJECT_NAME":"ONEWEB-0189","OBJECT_ID":"2021-031H","EPOCH":"2025-12-25T20:13:48.779616","MEAN_MOTION":13.14500426,"ECCENTRICITY":0.000148,"INCLINATION":87.9006,"RA_OF_ASC_NODE":324.2324,"ARG_OF_PERICENTER":75.7866,"MEAN_ANOMALY":284.3428,"EPHEMERIS_TYPE":0,"CLASSIFICATION_TYPE":"U","NORAD_CAT_ID":48217,"ELEMENT_SET_NO":999,"REV_AT_EPOCH":22545,"BSTAR":-0.00025139,"MEAN_MOTION_DOT":-8.0e-7,"MEAN_MOTION_DDOT":0},{"OBJECT_NAME":"ONEWEB-0196","OBJECT_ID":"2021-031J","EPOCH":"2025-12-25T19:41:51.478080","MEAN_MOTION":13.14503838,"ECCENTRICITY":0.0001631,"INCLINATION":87.8999,"RA_OF_ASC_NODE":324.2503,"ARG_OF_PERICENTER":81.2193,"MEAN_ANOMALY":278.9121,"EPHEMERIS_TYPE":0,"CLASSIFICATION_TYPE":"U","NORAD_CAT_ID":48218,"ELEMENT_SET_NO":999,"REV_AT_EPOCH":22545,"BSTAR":0.00050501,"MEAN_MOTION_DOT":2.0e-6,"MEAN_MOTION_DDOT":0}]
