ONEWEB-0171             
1 48070U 21025AE  25359.40953595 -.00000306  00000+0 -87191-3 0  9992
2 48070  87.8974 354.7764 0001733  84.2026 275.9300 13.13468809230808
ONEWEB-0172             
1 48071U 21025AF  25359.54157565 -.00000013  00000+0 -70301-4 0  9992
2 48071  87.8985 354.7332 0001630  83.1659 276.9655 13.13467746231712
ONEWEB-0174             
1 48072U 21025AG  25359.52296446  .00000374  00000+0  98969-3 0  9990
2 48072  87.8977 354.7403 0001698  93.0840 267.0483 13.13468683231035
ONEWEB-0175             
1 48073U 21025AH  25359.55342199 -.00000243  00000+0 -70062-3 0  9992
2 48073  87.8983 354.7044 0001768  76.9458 283.1869 13.13467848230697
ONEWEB-0177             
1 48074U 21025AJ  25359.41292356 -.00000313  00000+0 -89159-3 0  9992
2 48074  87.8983 354.7518 0001589  92.9594 267.1717 13.13468800230866
ONEWEB-0178             
1 48075U 21025AK  25359.50786148  .00000149  00000+0  37329-3 0  9997
2 48075  87.8974 354.7729 0001548  80.8071 279.3233 13.13468628230925
ONEWEB-0108             
1 48076U 21025AL  25359.01003589 -.00000199  00000+0 -57855-3 0  9998
2 48076  87.8985 354.8217 0001946  92.5188 267.6164 13.13469212230789
ONEWEB-0169             
1 48077U 21025AM  25359.42306830 -.00001028  00000+0 -28502-2 0  9997
2 48077  87.8981 354.7598 0001925  92.6843 267.4506 13.13474071229496
ONEWEB-0176             
1 48210U 21031A   25359.85879326 -.00000199  00000+0 -57079-3 0  9995
2 48210  87.9004 324.2344 0001705  79.2379 280.8942 13.14501200225545
ONEWEB-0184             
1 48211U 21031B   25359.83183363  .00000143  00000+0  35173-3 0  9991
2 48211  87.9016 324.2219 0001772  53.9303 306.1991 13.14501137225512
ONEWEB-0179             
1 48212U 21031C   25359.42191465 -.00000134  00000+0 -39657-3 0  9992
2 48212  87.9009 324.3109 0001433 104.1104 256.0185 13.14505059225500
ONEWEB-0180             
1 48213U 21031D   25359.83500596  .00000169  00000+0  42180-3 0  9998
2 48213  87.9016 324.2267 0001474  78.7320 281.3976 13.14501510225444
ONEWEB-0218             
1 48214U 21031E   25359.62885251 -.00000124  00000+0 -36966-3 0  9998
2 48214  87.9012 324.2685 0001463  50.2478 309.8780 13.14503426225573
ONEWEB-0209             
1 48215U 21031F   25359.84610726 -.00000072  00000+0 -22803-3 0  9993
2 48215  87.9006 324.2602 0001616  86.3967 273.7348 13.14501766225607
ONEWEB-0198             
1 48216U 21031G   25359.83038131  .00000192  00000+0  48249-3 0  9990
2 48216  87.9002 324.2604 0001381  75.1152 285.0131 13.14500688225717
ONEWEB-0189             
1 48217U 21031H   25359.84292569 -.00000080  00000+0 -25139-3 0  9990
2 48217  87.9006 324.2324 0001480  75.7866 284.3428 13.14500426225451
ONEWEB-0196             
1 48218U 21031J   25359.82073470  .00000200  00000+0  50501-3 0  9990
2 48218  87.8999 324.2503 0001631  81.2193 278.9121 13.14503838225453
